{"type": "FeatureCollection", "features": [ {"type": "Feature", "properties": {"norad_id": 66819, "name": "STARLINK-35989", "group": "last-30-days", "lat": 29.875355726312318, "lon": -134.66371362734563, "alt_km": 411.1411653241248, "timestamp": "2025-12-23T11:34:46.947031+00:00", "meta": {"OBJECT_NAME": "STARLINK-35989", "OBJECT_ID": "2025-278AE", "EPOCH": "2025-12-23T04:00:01.998720", "MEAN_MOTION": 15.50517665, "ECCENTRICITY": 0.0001597, "INCLINATION": 42.9996, "RA_OF_ASC_NODE": 189.1246, "ARG_OF_PERICENTER": 268.3071, "MEAN_ANOMALY": 173.804, "EPHEMERIS_TYPE": 0, "CLASSIFICATION_TYPE": "U", "NORAD_CAT_ID": 66819, "ELEMENT_SET_NO": 999, "REV_AT_EPOCH": 463, "BSTAR": 0.0009323, "MEAN_MOTION_DOT": 0.00054615, "MEAN_MOTION_DDOT": 0}, "tle": {"line1": "1 66819U 25278AE  25357.16668980  .00054615  00000+0  93230-3 0  9990", "line2": "2 66819  42.9996 189.1246 0001597 268.3071 173.8040 15.50517665  4638"}}, "geometry": {"type": "Point", "coordinates": [-134.66371362734563, 29.875355726312318]}}, {"type": "Feature", "properties": {"norad_id": 66820, "name": "KOMPSAT-7", "group": "last-30-days", "lat": 11.210335456994965, "lon": -58.36387191783842, "alt_km": 572.5634383945617, "timestamp": "2025-12-23T11:34:46.947041+00:00", "meta": {"OBJECT_NAME": "KOMPSAT-7", "OBJECT_ID": "2025-279A", "EPOCH": "2025-12-22T19:31:35.003712", "MEAN_MOTION": 15.00657999, "ECCENTRICITY": 0.0011114, "INCLINATION": 97.6453, "RA_OF_ASC_NODE": 302.5039, "ARG_OF_PERICENTER": 229.8649, "MEAN_ANOMALY": 130.1602, "EPHEMERIS_TYPE": 0, "CLASSIFICATION_TYPE": "U", "NORAD_CAT_ID": 66820, "ELEMENT_SET_NO": 999, "REV_AT_EPOCH": 316, "BSTAR": 0.00023698588, "MEAN_MOTION_DOT": 2.942e-05, "MEAN_MOTION_DDOT": 0}, "tle": {"line1": "1 66820U 25279A   25356.81359958  .00002942  00000+0  23699-3 0  9994", "line2": "2 66820  97.6453 302.5039 0011114 229.8649 130.1602 15.00657999  3162"}}, "geometry": {"type": "Point", "coordinates": [-58.36387191783842, 11.210335456994965]}}, {"type": "Feature", "properties": {"norad_id": 66821, "name": "STARLINK-35966", "group": "last-30-days", "lat": -69.92245107231253, "lon": 83.79376171884084, "alt_km": 413.5829282705554, "timestamp": "2025-12-23T11:34:46.947051+00:00", "meta": {"OBJECT_NAME": "STARLINK-35966", "OBJECT_ID": "2025-280A", "EPOCH": "2025-12-23T01:08:07.728288", "MEAN_MOTION": 15.52532634, "ECCENTRICITY": 0.0003282, "INCLINATION": 70.0005, "RA_OF_ASC_NODE": 170.1845, "ARG_OF_PERICENTER": 274.403, "MEAN_ANOMALY": 85.6782, "EPHEMERIS_TYPE": 0, "CLASSIFICATION_TYPE": "U", "NORAD_CAT_ID": 66821, "ELEMENT_SET_NO": 999, "REV_AT_EPOCH": 453, "BSTAR": 0.0010895, "MEAN_MOTION_DOT": 0.00067465, "MEAN_MOTION_DDOT": 0}, "tle": {"line1": "1 66821U 25280A   25357.04731167  .00067465  00000+0  10895-2 0  9993", "line2": "2 66821  70.0005 170.1845 0003282 274.4030  85.6782 15.52532634  4532"}}, "geometry": {"type": "Point", "coordinates": [83.79376171884084, -69.92245107231253]}}, {"type": "Feature", "properties": {"norad_id": 66822, "name": "STARLINK-35958", "group": "last-30-days", "lat": -69.68270813510678, "lon": 89.34348494634696, "alt_km": 413.5305598925779, "timestamp": "2025-12-23T11:34:46.947059+00:00", "meta": {"OBJECT_NAME": "STARLINK-35958", "OBJECT_ID": "2025-280B", "EPOCH": "2025-12-23T01:07:38.107776", "MEAN_MOTION": 15.52537146, "ECCENTRICITY": 0.0003284, "INCLINATION": 70.0002, "RA_OF_ASC_NODE": 170.1839, "ARG_OF_PERICENTER": 271.4121, "MEAN_ANOMALY": 88.6689, "EPHEMERIS_TYPE": 0, "CLASSIFICATION_TYPE": "U", "NORAD_CAT_ID": 66822, "ELEMENT_SET_NO": 999, "REV_AT_EPOCH": 453, "BSTAR": 0.0013155, "MEAN_MOTION_DOT": 0.00081649, "MEAN_MOTION_DDOT": 0}, "tle": {"line1": "1 66822U 25280B   25357.04696884  .00081649  00000+0  13155-2 0  9992", "line2": "2 66822  70.0002 170.1839 0003284 271.4121  88.6689 15.52537146  4535"}}, "geometry": {"type": "Point", "coordinates": [89.34348494634696, -69.68270813510678]}}, {"type": "Feature", "properties": {"norad_id": 66823, "name": "STARLINK-35957", "group": "last-30-days", "lat": -69.28004317862451, "lon": 94.6478233264556, "alt_km": 413.6742324455181, "timestamp": "2025-12-23T11:34:46.947068+00:00", "meta": {"OBJECT_NAME": "STARLINK-35957", "OBJECT_ID": "2025-280C", "EPOCH": "2025-12-23T01:07:08.577120", "MEAN_MOTION": 15.52534459, "ECCENTRICITY": 0.0003076, "INCLINATION": 70.0002, "RA_OF_ASC_NODE": 170.1823, "ARG_OF_PERICENTER": 274.9611, "MEAN_ANOMALY": 85.1225, "EPHEMERIS_TYPE": 0, "CLASSIFICATION_TYPE": "U", "NORAD_CAT_ID": 66823, "ELEMENT_SET_NO": 999, "REV_AT_EPOCH": 453, "BSTAR": 0.0013106, "MEAN_MOTION_DOT": 0.00081332, "MEAN_MOTION_DDOT": 0}, "tle": {"line1": "1 66823U 25280C   25357.04662705  .00081332  00000+0  13106-2 0  9993", "line2": "2 66823  70.0002 170.1823 0003076 274.9611  85.1225 15.52534459  4532"}}, "geometry": {"type": "Point", "coordinates": [94.6478233264556, -69.28004317862451]}}, {"type": "Feature", "properties": {"norad_id": 66824, "name": "STARLINK-35896", "group": "last-30-days", "lat": -68.71552151153632, "lon": 99.76663621166666, "alt_km": 413.38463473398315, "timestamp": "2025-12-23T11:34:46.947078+00:00", "meta": {"OBJECT_NAME": "STARLINK-35896", "OBJECT_ID": "2025-280D", "EPOCH": "2025-12-23T01:06:38.795040", "MEAN_MOTION": 15.52536436, "ECCENTRICITY": 0.0003517, "INCLINATION": 70.0001, "RA_OF_ASC_NODE": 170.1808, "ARG_OF_PERICENTER": 273.0227, "MEAN_ANOMALY": 87.0558, "EPHEMERIS_TYPE": 0, "CLASSIFICATION_TYPE": "U", "NORAD_CAT_ID": 66824, "ELEMENT_SET_NO": 999, "REV_AT_EPOCH": 453, "BSTAR": 0.0012418, "MEAN_MOTION_DOT": 0.00077025, "MEAN_MOTION_DDOT": 0}, "tle": {"line1": "1 66824U 25280D   25357.04628235  .00077025  00000+0  12418-2 0  9993", "line2": "2 66824  70.0001 170.1808 0003517 273.0227  87.0558 15.52536436  4535"}}, "geometry": {"type": "Point", "coordinates": [99.76663621166666, -68.71552151153632]}}, {"type": "Feature", "properties": {"norad_id": 66825, "name": "STARLINK-35476", "group": "last-30-days", "lat": -68.00881700540269, "lon": 104.57652059703953, "alt_km": 413.57443105084985, "timestamp": "2025-12-23T11:34:46.947087+00:00", "meta": {"OBJECT_NAME": "STARLINK-35476", "OBJECT_ID": "2025-280E", "EPOCH": "2025-12-23T01:06:09.124416", "MEAN_MOTION": 15.52534124, "ECCENTRICITY": 0.000333, "INCLINATION": 70.0003, "RA_OF_ASC_NODE": 170.1793, "ARG_OF_PERICENTER": 268.8003, "MEAN_ANOMALY": 91.2803, "EPHEMERIS_TYPE": 0, "CLASSIFICATION_TYPE": "U", "NORAD_CAT_ID": 66825, "ELEMENT_SET_NO": 999, "REV_AT_EPOCH": 453, "BSTAR": 0.0010653, "MEAN_MOTION_DOT": 0.00065954, "MEAN_MOTION_DDOT": 0}, "tle": {"line1": "1 66825U 25280E   25357.04593894  .00065954  00000+0  10653-2 0  9993", "line2": "2 66825  70.0003 170.1793 0003330 268.8003  91.2803 15.52534124  4530"}}, "geometry": {"type": "Point", "coordinates": [104.57652059703953, -68.00881700540269]}}, {"type": "Feature", "properties": {"norad_id": 66826, "name": "STARLINK-35898", "group": "last-30-days", "lat": -67.18134231965985, "lon": 109.0219533957631, "alt_km": 413.6326226650199, "timestamp": "2025-12-23T11:34:46.947096+00:00", "meta": {"OBJECT_NAME": "STARLINK-35898", "OBJECT_ID": "2025-280F", "EPOCH": "2025-12-23T02:38:26.255040", "MEAN_MOTION": 15.52533092, "ECCENTRICITY": 0.0003317, "INCLINATION": 70.0003, "RA_OF_ASC_NODE": 170.0009, "ARG_OF_PERICENTER": 273.2097, "MEAN_ANOMALY": 86.871, "EPHEMERIS_TYPE": 0, "CLASSIFICATION_TYPE": "U", "NORAD_CAT_ID": 66826, "ELEMENT_SET_NO": 999, "REV_AT_EPOCH": 454, "BSTAR": 0.00072901, "MEAN_MOTION_DOT": 0.00044959, "MEAN_MOTION_DDOT": 0}, "tle": {"line1": "1 66826U 25280F   25357.11002610  .00044959  00000+0  72901-3 0  9990", "line2": "2 66826  70.0003 170.0009 0003317 273.2097  86.8710 15.52533092  4549"}}, "geometry": {"type": "Point", "coordinates": [109.0219533957631, -67.18134231965985]}}, {"type": "Feature", "properties": {"norad_id": 66827, "name": "STARLINK-35959", "group": "last-30-days", "lat": -66.18598492650851, "lon": 113.3634044080609, "alt_km": 413.4866279680509, "timestamp": "2025-12-23T11:34:46.947107+00:00", "meta": {"OBJECT_NAME": "STARLINK-35959", "OBJECT_ID": "2025-280G", "EPOCH": "2025-12-23T02:37:56.313120", "MEAN_MOTION": 15.52566249, "ECCENTRICITY": 0.0003316, "INCLINATION": 70.0002, "RA_OF_ASC_NODE": 169.9998, "ARG_OF_PERICENTER": 274.8108, "MEAN_ANOMALY": 85.27, "EPHEMERIS_TYPE": 0, "CLASSIFICATION_TYPE": "U", "NORAD_CAT_ID": 66827, "ELEMENT_SET_NO": 999, "REV_AT_EPOCH": 454, "BSTAR": 0.0010243, "MEAN_MOTION_DOT": 0.00063458, "MEAN_MOTION_DDOT": 0}, "tle": {"line1": "1 66827U 25280G   25357.10967955  .00063458  00000+0  10243-2 0  9997", "line2": "2 66827  70.0002 169.9998 0003316 274.8108  85.2700 15.52566249  4544"}}, "geometry": {"type": "Point", "coordinates": [113.3634044080609, -66.18598492650851]}}, {"type": "Feature", "properties": {"norad_id": 66828, "name": "STARLINK-35982", "group": "last-30-days", "lat": -63.9844254547214, "lon": 120.70668765290809, "alt_km": 413.5443259993717, "timestamp": "2025-12-23T11:34:46.947116+00:00", "meta": {"OBJECT_NAME": "STARLINK-35982", "OBJECT_ID": "2025-280H", "EPOCH": "2025-12-23T01:04:10.686432", "MEAN_MOTION": 15.52538268, "ECCENTRICITY": 0.0003186, "INCLINATION": 70.0001, "RA_OF_ASC_NODE": 170.1737, "ARG_OF_PERICENTER": 277.2548, "MEAN_ANOMALY": 82.8277, "EPHEMERIS_TYPE": 0, "CLASSIFICATION_TYPE": "U", "NORAD_CAT_ID": 66828, "ELEMENT_SET_NO": 999, "REV_AT_EPOCH": 453, "BSTAR": 0.0014481, "MEAN_MOTION_DOT": 0.00089995, "MEAN_MOTION_DDOT": 0}, "tle": {"line1": "1 66828U 25280H   25357.04456813  .00089995  00000+0  14481-2 0  9999", "line2": "2 66828  70.0001 170.1737 0003186 277.2548  82.8277 15.52538268  4530"}}, "geometry": {"type": "Point", "coordinates": [120.70668765290809, -63.9844254547214]}}]}